H1 CPF 01  gfz 2022 04 05 00  5943 tandemx   
H2 1003001  6202 36605    2022 04 04 12 59 42 2022 04 09 00 00 42   120 1 1  0 0 0
H9
10 0 59674  10062.000000  0   -4167024.205  -5099628.200  -2031600.843
10 0 59674  10182.000000  0   -4438760.206  -5143373.000  -1152039.626
10 0 59674  10302.000000  0   -4632934.412  -5093231.267   -252220.871
10 0 59674  10422.000000  0   -4744478.679  -4951420.331    652034.288
10 0 59674  10542.000000  0   -4769834.651  -4721853.810   1544807.647
10 0 59674  10662.000000  0   -4707048.304  -4410047.026   2410373.920
10 0 59674  10782.000000  0   -4555831.593  -4022990.068   3233486.444
10 0 59674  10902.000000  0   -4317590.412  -3568992.244   3999652.843
10 0 59674  11022.000000  0   -3995417.749  -3057501.671   4695395.738
10 0 59674  11142.000000  0   -3594051.783  -2498904.131   5308491.227
10 0 59674  11262.000000  0   -3119802.418  -1904308.650   5828181.323
10 0 59674  11382.000000  0   -2580447.634  -1285324.103   6245359.815
10 0 59674  11502.000000  0   -1985100.831   -653829.306   6552728.031
10 0 59674  11622.000000  0   -1344051.342    -21742.198   6744916.263
10 0 59674  11742.000000  0    -668583.776    599204.128   6818569.987
10 0 59674  11862.000000  0      29220.511   1197678.007   6772405.025
10 0 59674  11982.000000  0     736699.128   1762955.706   6607228.885
10 0 59674  12102.000000  0    1440838.105   2285113.845   6325927.241
10 0 59674  12222.000000  0    2128510.429   2755203.491   5933416.030
10 0 59674  12342.000000  0    2786720.543   3165404.972   5436561.606
10 0 59674  12462.000000  0    3402852.435   3509161.599   4844067.248
10 0 59674  12582.000000  0    3964914.568   3781287.899   4166324.531
10 0 59674  12702.000000  0    4461776.183   3978050.873   3415237.398
10 0 59674  12822.000000  0    4883396.313   4097224.798   2604015.035
10 0 59674  12942.000000  0    5221031.064   4138112.829   1746936.837
10 0 59674  13062.000000  0    5467419.779   4101538.389    859097.651
10 0 59674  13182.000000  0    5616942.922   3989804.974    -43865.469
10 0 59674  13302.000000  0    5665747.289   3806625.268   -946057.804
10 0 59674  13422.000000  0    5611835.501   3557021.390  -1831615.392
10 0 59674  13542.000000  0    5455117.946   3247198.963  -2684991.673
10 0 59674  13662.000000  0    5197426.070   2884399.040  -3491235.345
10 0 59674  13782.000000  0    4842488.606   2476732.358  -4236254.802
10 0 59674  13902.000000  0    4395869.538   2032998.602  -4907064.775
10 0 59674  14022.000000  0    3864870.580   1562495.672  -5492006.733
10 0 59674  14142.000000  0    3258403.011   1074825.720  -5980942.904
10 0 59674  14262.000000  0    2586830.577    579700.829  -6365421.954
10 0 59674  14382.000000  0    1861787.231     86752.356  -6638812.939
10 0 59674  14502.000000  0    1095975.337   -394652.117  -6796408.665
10 0 59674  14622.000000  0     302944.800   -855582.875  -6835499.492
10 0 59674  14742.000000  0    -503143.110  -1287709.253  -6755413.070
10 0 59674  14862.000000  0   -1307761.670  -1683445.580  -6557524.473
10 0 59674  14982.000000  0   -2096274.470  -2036081.583  -6245236.036
10 0 59674  15102.000000  0   -2854195.776  -2339894.634  -5823924.469
10 0 59674  15222.000000  0   -3567451.580  -2590242.388  -5300858.497
10 0 59674  15342.000000  0   -4222640.876  -2783635.751  -4685086.041
10 0 59674  15462.000000  0   -4807290.500  -2917789.209  -3987288.528
10 0 59674  15582.000000  0   -5310097.902  -2991647.279  -3219605.614
10 0 59674  15702.000000  0   -5721157.986  -3005386.601  -2395431.469
10 0 59674  15822.000000  0   -6032167.636  -2960392.734  -1529184.622
10 0 59674  15942.000000  0   -6236602.450  -2859212.068   -636055.847
10 0 59674  16062.000000  0   -6329861.077  -2705479.158    268261.971
10 0 59674  16182.000000  0   -6309372.995  -2503821.181   1167855.961
10 0 59674  16302.000000  0   -6174666.008  -2259741.739   2046882.883
10 0 59674  16422.000000  0   -5927389.294  -1979486.317   2889857.775
10 0 59674  16542.000000  0   -5571295.006  -1669893.652   3681934.040
10 0 59674  16662.000000  0   -5112176.938  -1338236.549   4409172.719
10 0 59674  16782.000000  0   -4557766.655   -992055.804   5058790.210
10 0 59674  16902.000000  0   -3917595.046   -638993.177   5619381.487
10 0 59674  17022.000000  0   -3202820.676   -286625.991   6081118.590
10 0 59674  17142.000000  0   -2426026.768     57693.631   6435918.887
10 0 59674  17262.000000  0   -1600992.570    386989.469   6677580.177
10 0 59674  17382.000000  0    -742444.967    694799.721   6801882.822
10 0 59674  17502.000000  0     134205.599    975302.313   6806658.457
10 0 59674  17622.000000  0    1013141.157   1223424.067   6691825.131
10 0 59674  17742.000000  0    1878420.732   1434932.700   6459388.750
10 0 59674  17862.000000  0    2714268.614   1606509.251   6113409.934
10 0 59674  17982.000000  0    3505362.539   1735800.229   5659938.225
10 0 59674  18102.000000  0    4237117.704   1821448.657   5106911.479
10 0 59674  18222.000000  0    4895959.066   1863103.971   4464023.137
10 0 59674  18342.000000  0    5469581.293   1861411.118   3742559.468
10 0 59674  18462.000000  0    5947189.165   1817976.942   2955202.211
10 0 59674  18582.000000  0    6319708.001   1735315.635   2115805.594
10 0 59674  18702.000000  0    6579966.322   1616774.152   1239150.607
10 0 59674  18822.000000  0    6722840.341   1466439.043    340677.892
10 0 59674  18942.000000  0    6745358.687   1289027.790   -563791.620
10 0 59674  19062.000000  0    6646763.714   1089766.626  -1458345.214
10 0 59674  19182.000000  0    6428527.264    874257.050  -2327265.923
10 0 59674  19302.000000  0    6094323.076    648335.819  -3155315.386
10 0 59674  19422.000000  0    5649954.821    417932.824  -3928005.400
10 0 59674  19542.000000  0    5103242.839    188929.427  -4631852.565
10 0 59674  19662.000000  0    4463872.634    -32979.311  -5254609.539
10 0 59674  19782.000000  0    3743212.011   -242414.439  -5785470.089
10 0 59674  19902.000000  0    2954100.647   -434432.815  -6215247.599
10 0 59674  20022.000000  0    2110614.574   -604634.644  -6536523.381
10 0 59674  20142.000000  0    1227813.305   -749256.439  -6743762.257
10 0 59674  20262.000000  0     321473.375   -865248.796  -6833399.083
10 0 59674  20382.000000  0    -592189.724   -950336.374  -6803892.932
10 0 59674  20502.000000  0   -1496804.325  -1003060.525  -6655750.285
10 0 59674  20622.000000  0   -2376129.426  -1022803.710  -6391517.714
10 0 59674  20742.000000  0   -3214339.595  -1009795.281  -6015741.508
10 0 59674  20862.000000  0   -3996303.878   -965099.042  -5534898.700
10 0 59674  20982.000000  0   -4707859.219   -890582.409  -4957297.283
10 0 59674  21102.000000  0   -5336070.127   -788867.304  -4292943.813
10 0 59674  21222.000000  0   -5869470.642   -663264.210  -3553381.400
10 0 59674  21342.000000  0   -6298284.621   -517689.541  -2751498.037
10 0 59674  21462.000000  0   -6614617.160   -356567.859  -1901307.192
10 0 59674  21582.000000  0   -6812613.458   -184722.052  -1017705.175
10 0 59674  21702.000000  0   -6888580.510     -7251.934   -116206.552
10 0 59674  21822.000000  0   -6841063.331    170594.626    787334.950
10 0 59674  21942.000000  0   -6670878.589    343554.439   1677011.951
10 0 59674  22062.000000  0   -6381103.088    506482.265   2537152.705
10 0 59674  22182.000000  0   -5977015.878    654481.538   3352606.435
10 0 59674  22302.000000  0   -5465995.296    783029.175   4109017.796
10 0 59674  22422.000000  0   -4857374.932    888090.922   4793083.691
10 0 59674  22542.000000  0   -4162262.755    966224.405   5392788.164
10 0 59674  22662.000000  0   -3393328.972   1014667.756   5897611.148
10 0 59674  22782.000000  0   -2564566.813   1031411.824   6298709.736
10 0 59674  22902.000000  0   -1691030.725   1015254.712   6589068.566
10 0 59674  23022.000000  0    -788557.052    965838.013   6763615.953
10 0 59674  23142.000000  0     126524.743    883663.238   6819305.854
10 0 59674  23262.000000  0    1037686.931    770088.634   6755167.237
10 0 59674  23382.000000  0    1928500.785    627306.877   6572319.975
10 0 59674  23502.000000  0    2782931.688    458303.602   6273956.822
10 0 59674  23622.000000  0    3585628.441    266797.259   5865292.151
10 0 59674  23742.000000  0    4322201.958     57161.033   5353475.901
10 0 59674  23862.000000  0    4979487.714   -165671.737   4747474.361
10 0 59674  23982.000000  0    5545787.902   -396316.978   4057918.703
10 0 59674  24102.000000  0    6011089.079   -629061.830   3296922.974
10 0 59674  24222.000000  0    6367250.195   -857996.652   2477872.602
10 0 59674  24342.000000  0    6608154.566  -1077153.913   1615186.235
10 0 59674  24462.000000  0    6729821.611  -1280650.789    724057.704
10 0 59674  24582.000000  0    6730478.911  -1462832.584   -179817.732
10 0 59674  24702.000000  0    6610588.663  -1618412.751  -1080529.909
10 0 59674  24822.000000  0    6372827.802  -1742604.905  -1962242.442
10 0 59674  24942.000000  0    6022024.169  -1831244.630  -2809479.359
10 0 59674  25062.000000  0    5565049.592  -1880897.530  -3607401.695
10 0 59674  25182.000000  0    5010674.709  -1888950.979  -4342068.812
10 0 59674  25302.000000  0    4369389.877  -1853687.515  -5000680.209
10 0 59674  25422.000000  0    3653195.757  -1774339.209  -5571793.580
10 0 59674  25542.000000  0    2875369.213  -1651121.551  -6045514.395
10 0 59674  25662.000000  0    2050212.346  -1485246.029  -6413655.953
10 0 59674  25782.000000  0    1192787.850  -1278911.747  -6669870.818
10 0 59674  25902.000000  0     318644.803  -1035277.115  -6809749.191
10 0 59674  26022.000000  0    -556458.880   -758412.008  -6830886.397
10 0 59674  26142.000000  0   -1416833.825   -453230.910  -6732919.370
10 0 59674  26262.000000  0   -2247134.224   -125407.604  -6517532.289
10 0 59674  26382.000000  0   -3032625.101    218727.239  -6188429.639
10 0 59674  26502.000000  0   -3759438.209    572303.868  -5751279.838
99
